[{"OBJECT_NAME":"SWARM B","OBJECT_ID":"2013-067A","EPOCH":"2026-03-09T22:20:48.706656","MEAN_MOTION":15.27862638,"ECCENTRICITY":0.00036996,"INCLINATION":87.749,"RA_OF_ASC_NODE":12.4162,"ARG_OF_PERICENTER":86.3179,"MEAN_ANOMALY":273.8493,"EPHEMERIS_TYPE":0,"CLASSIFICATION_TYPE":"U","NORAD_CAT_ID":39451,"ELEMENT_SET_NO":999,"REV_AT_EPOCH":66808,"BSTAR":0.00020534236,"MEAN_MOTION_DOT":5.616e-5,"MEAN_MOTION_DDOT":0},{"OBJECT_NAME":"STARLINK-36549","OBJECT_ID":"2026-012T","EPOCH":"2026-03-09T01:56:02.070528","MEAN_MOTION":15.275761,"ECCENTRICITY":0.00015637,"INCLINATION":42.9999,"RA_OF_ASC_NODE":317.3954,"ARG_OF_PERICENTER":262.2929,"MEAN_ANOMALY":97.7745,"EPHEMERIS_TYPE":0,"CLASSIFICATION_TYPE":"U","NORAD_CAT_ID":67510,"ELEMENT_SET_NO":999,"REV_AT_EPOCH":767,"BSTAR":0.00081220898,"MEAN_MOTION_DOT":0.00022153,"MEAN_MOTION_DDOT":0}]
